[{"OBJECT_NAME":"STARLINK-31486","OBJECT_ID":"2024-045D","EPOCH":"2026-03-09T01:35:46.888224","MEAN_MOTION":15.275756,"ECCENTRICITY":0.00019468,"INCLINATION":43.0039,"RA_OF_ASC_NODE":92.8157,"ARG_OF_PERICENTER":286.8405,"MEAN_ANOMALY":73.2233,"EPHEMERIS_TYPE":0,"CLASSIFICATION_TYPE":"U","NORAD_CAT_ID":59181,"ELEMENT_SET_NO":999,"REV_AT_EPOCH":11310,"BSTAR":3.2456743e-5,"MEAN_MOTION_DOT":6.31e-6,"MEAN_MOTION_DDOT":0},{"OBJECT_NAME":"FLOCK 4G-23","OBJECT_ID":"2025-009AQ","EPOCH":"2026-03-09T17:11:57.175872","MEAN_MOTION":15.27262579,"ECCENTRICITY":9.048e-5,"INCLINATION":97.3979,"RA_OF_ASC_NODE":150.9478,"ARG_OF_PERICENTER":7.2707,"MEAN_ANOMALY":352.8545,"EPHEMERIS_TYPE":0,"CLASSIFICATION_TYPE":"U","NORAD_CAT_ID":62647,"ELEMENT_SET_NO":999,"REV_AT_EPOCH":6372,"BSTAR":0.00046815788,"MEAN_MOTION_DOT":0.0001244,"MEAN_MOTION_DDOT":0}]
